satname,norad_id,inclination_deg,eccentricity,mean_motion_rev_per_day,perigee_km,apogee_km,l1,l2
STARLINK-1376,45570,53.0557,0.0001492,15.06376715,546.2496513762362,548.3161966815669,1 45570U 20025AR  25305.30712209 -.00001510  00000+0 -82535-4 0  9994,2 45570  53.0557 302.9514 0001492  83.3094 276.8065 15.06376715306010
STARLINK-1320,45572,53.0576,0.000954,15.43023893,430.688844719145,443.6924899083797,1 45572U 20025AT  25305.66668981  .00084865  00000+0  18801-2 0  9997,2 45572  53.0576 244.3926 0009540  28.7885 190.5624 15.43023893  5940
STARLINK-1321,45573,53.0542,0.0001532,15.06382771,546.2033913563437,548.3253343339193,1 45573U 20025AU  25305.29330120  .00004941  00000+0  35050-3 0  9991,2 45573  53.0542 293.0150 0001532  71.0826 289.0329 15.06382771305854
STARLINK-1328,45576,53.0502,0.0010743,15.68480279,356.0057701954129,370.49031009266673,1 45576U 20025AX  25305.66668981  .00202948  00000+0  17198-2 0  9993,2 45576  53.0502 267.1440 0010743  45.1076 301.4076 15.68480279  5956
STARLINK-1331,45578,53.0559,0.0001614,15.0641899,546.0356150711414,548.2710987983601,1 45578U 20025AZ  25305.27114204  .00003876  00000+0  27883-3 0  9998,2 45578  53.0559 293.1157 0001614  91.9464 268.1710 15.06418990306165
STARLINK-1333,45580,53.0562,0.0001672,15.06390641,546.0823189989678,548.3981651487165,1 45580U 20025BB  25305.21126262 -.00002708  00000+0 -16303-3 0  9992,2 45580  53.0562 303.3790 0001672 104.6157 255.5018 15.06390641306000
STARLINK-1335,45581,53.0554,0.0001564,15.0638189,546.1839298405721,548.3501962314904,1 45581U 20025BC  25305.28222605  .00001357  00000+0  11004-3 0  9998,2 45581  53.0554 293.0645 0001564  93.8519 266.2649 15.06381890306158
STARLINK-1337,45582,53.0546,0.0001497,15.06391523,546.2008102757363,548.2742674126657,1 45582U 20025BD  25305.23799551  .00001118  00000+0  93949-4 0  9997,2 45582  53.0546 293.2634 0001497  88.3760 271.7400 15.06391523306141
STARLINK-1347,45586,53.0551,0.0007586,15.3168199,465.598083808698,475.98928144037654,1 45586U 20025BH  25305.62859709  .00076982  00000+0  24665-2 0  9994,2 45586  53.0551 276.8270 0007586   7.0944 353.0162 15.31681990306407
STARLINK-1360,45588,53.0438,0.0005867,15.75562972,339.08634774544953,346.9729646998612,1 45588U 20025BK  25305.66668981  .00105591  00000+0  67417-3 0  9992,2 45588  53.0438 194.9058 0005867 132.5473 268.9396 15.75562972  6044
STARLINK-1364,45589,53.0549,0.0001458,15.06390189,546.231907199558,548.2513476073091,1 45589U 20025BL  25305.24168132  .00001044  00000+0  88976-4 0  9992,2 45589  53.0549 293.2491 0001458  87.2724 272.8432 15.06390189306141
STARLINK-1365,45590,53.055,0.0001378,15.06394057,546.2754568959699,548.1840879784531,1 45590U 20025BM  25305.32368328  .00000500  00000+0  52472-4 0  9990,2 45590  53.0550 322.8760 0001378  92.3586 267.7560 15.06394057305756
STARLINK-1443,45660,53.0555,0.0001691,15.06381361,546.0975982765722,548.439770479029,1 45660U 20035D   25305.24260167 -.00003442  00000+0 -21239-3 0  9998,2 45660  53.0555 283.2417 0001691  89.9301 270.1882 15.06381361299372
STARLINK-1446,45663,53.0266,0.000135,15.33758449,463.6869586719122,465.5345005589088,1 45663U 20035G   25305.56254975  .00053261  00000+0  16085-2 0  9990,2 45663  53.0266 244.5028 0001350  56.3062 303.8067 15.33758449299943
STARLINK-1448,45665,53.0583,0.0001707,15.0637912,546.0933849474186,548.4577207929688,1 45665U 20035J   25305.24629544 -.00000510  00000+0 -15355-4 0  9997,2 45665  53.0583 283.2261 0001707 105.0874 255.0304 15.06379120299368
STARLINK-1451,45668,53.0532,0.0001368,15.06388766,546.2985963513975,548.1933811371182,1 45668U 20035M   25305.25001130 -.00000425  00000+0 -96502-5 0  9995,2 45668  53.0532 283.5256 0001368  82.8030 277.3114 15.06388766299374
STARLINK-1452,45669,53.0411,0.0011468,15.26702912,477.80524879027325,493.54809182448935,1 45669U 20035N   25305.66668981  .00089842  00000+0  33425-2 0  9994,2 45669  53.0411 262.4475 0011468  25.5220 301.1272 15.26702912  5851
STARLINK-1453,45670,53.0539,0.0002211,15.06381672,545.7365242020342,548.7989381741663,1 45670U 20035P   25305.59185368 -.00001426  00000+0 -76879-4 0  9997,2 45670  53.0539 251.6740 0002211  76.0014 284.1221 15.06381672299737
STARLINK-1454,45671,53.0549,0.0001506,15.06385791,546.2121427678303,548.2980708704035,1 45671U 20035Q   25305.20574828  .00000848  00000+0  75836-4 0  9996,2 45671  53.0549 283.4070 0001506  91.6338 268.4824 15.06385791299354
STARLINK-1456,45673,53.0545,0.0001343,15.06389813,546.3127012975992,548.172858306455,1 45673U 20035S   25305.22049413  .00001933  00000+0  14867-3 0  9999,2 45673  53.0545 283.3423 0001343  83.0502 277.0640 15.06389813299373
STARLINK-1457,45674,53.053,0.0001776,15.0973558,535.7791828558056,538.2354421155997,1 45674U 20035T   25305.66668981  .01587818  00000+0  89451-1 0  9996,2 45674  53.0530 281.3064 0001776 133.1322 104.5526 15.09735580  5803
STARLINK-1458,45675,53.0542,0.0001505,15.06388541,546.2044081019176,548.2889485891001,1 45675U 20035U   25305.21680609  .00000456  00000+0  49502-4 0  9992,2 45675  53.0542 283.3549 0001505  89.2736 270.8426 15.06388541299334
STARLINK-1460,45676,53.0546,0.0001568,15.06387777,546.1631193982257,548.3349204540755,1 45676U 20035V   25305.25366767  .00000011  00000+0  19626-4 0  9994,2 45676  53.0546 283.1885 0001568  84.5021 275.6147 15.06387777299337
STARLINK-1392,45677,53.0546,0.0001709,15.06377174,546.0979631995306,548.4650712487182,1 45677U 20035W   25305.26471481  .00001907  00000+0  14700-3 0  9998,2 45677  53.0546 283.1426 0001709  88.8623 271.2562 15.06377174299378
STARLINK-1394,45679,53.054,0.000142,15.06396489,546.2389176452507,548.2057196917531,1 45679U 20035Y   25305.19561708  .00006316  00000+0  44254-3 0  9990,2 45679  53.0540 273.4517 0001420  96.8867 263.2283 15.06396489299502
STARLINK-1402,45685,53.0521,0.0001874,15.26727141,484.31778637236584,486.8903165184465,1 45685U 20035AE  25305.58454735  .00032469  00000+0  12268-2 0  9998,2 45685  53.0521 264.3097 0001874 108.0282 252.0920 15.26727141299677
STARLINK-1404,45686,53.0538,0.0001485,15.06381295,546.2404638883036,548.2973094366434,1 45686U 20035AF  25305.61949153 -.00001442  00000+0 -77972-4 0  9990,2 45686  53.0538 271.5515 0001485  90.8979 269.2180 15.06381295299571
STARLINK-1413,45689,53.0557,0.0001469,15.06388781,546.2286040165545,548.2632815251409,1 45689U 20035AJ  25305.23984150 -.00000399  00000+0 -79107-5 0  9990,2 45689  53.0557 273.2503 0001469  89.0972 271.0185 15.06388781299423
STARLINK-1417,45693,53.054,0.0001456,15.06385039,546.2490742016662,548.2657490543324,1 45693U 20035AN  25305.63423216 -.00001673  00000+0 -93475-4 0  9999,2 45693  53.0540 271.4853 0001456  91.4252 268.6904 15.06385039299561
STARLINK-1420,45695,53.0541,0.000182,15.06379489,546.0139970336559,548.5348467912318,1 45695U 20035AQ  25305.56878982 -.00002644  00000+0 -15874-3 0  9992,2 45695  53.0541 251.7663 0001820  89.1637 270.9560 15.06379489299847
STARLINK-1422,45696,53.0546,0.0001559,15.06382735,546.184803092382,548.34414327172,1 45696U 20035AR  25305.18086011 -.00001114  00000+0 -55909-4 0  9990,2 45696  53.0546 273.5176 0001559  98.7225 261.3941 15.06382735299498
STARLINK-1351,45697,53.0538,0.0001249,15.06381195,546.4042099209064,548.1341763879573,1 45697U 20035AS  25305.15690901  .00002578  00000+0  19196-3 0  9997,2 45697  53.0538 253.6252 0001249  95.0496 265.0636 15.06381195299783
STARLINK-1398,45699,53.0497,0.0005312,15.5144312,408.9045965604737,416.1189818341163,1 45699U 20035AU  25305.66668981  .00161062  00000+0  26365-2 0  9997,2 45699  53.0497 210.6267 0005312 108.4552 211.9045 15.51443120  5972
STARLINK-1400,45700,53.0563,0.0001847,15.06392394,545.9557531466307,548.513985515162,1 45700U 20035AV  25305.13110035 -.00002059  00000+0 -11939-3 0  9998,2 45700  53.0563 253.7400 0001847 105.3538 254.7655 15.06392394299776
STARLINK-1403,45701,53.0554,0.0001478,15.0637434,546.2666251182882,548.3137813995709,1 45701U 20035AW  25305.55867150 -.00001652  00000+0 -92111-4 0  9992,2 45701  53.0554 251.8223 0001478  86.0783 274.0375 15.06374340299838
STARLINK-1407,45703,53.0412,0.0012214,15.41225808,434.1596985182796,450.8211271623659,1 45703U 20035AY  25305.46024305  .00028267  00000+0  67569-3 0  9998,2 45703  53.0412 210.6375 0012214  62.0420 298.1818 15.41225808300415
STARLINK-1411,45706,53.0524,0.0002592,15.41040053,441.27045295170956,444.80655033175935,1 45706U 20035BB  25305.66668981  .00227111  00000+0  52674-2 0  9996,2 45706  53.0524 236.8086 0002592 117.8961 251.6298 15.41040053  5884
STARLINK-1423,45710,53.0536,0.0001313,15.06381408,546.3592345791585,548.1778460740488,1 45710U 20035BF  25305.58447852  .00005066  00000+0  35893-3 0  9992,2 45710  53.0536 251.7083 0001313 102.5204 257.5932 15.06381408299840
STARLINK-1433,45711,53.0536,0.000163,15.06380786,546.1416052930754,548.3992881207014,1 45711U 20035BG  25305.56605487  .00011093  00000+0  76283-3 0  9996,2 45711  53.0536 251.7883 0001630  87.5268 272.5907 15.06380786299839
STARLINK-1434,45712,53.049,0.0005991,15.15484649,515.3752203878948,523.6399781467371,1 45712U 20035BH  25305.12713768  .00016428  00000+0  87148-3 0  9990,2 45712  53.0490 249.8763 0005991  63.9776 296.1833 15.15484649299833
STARLINK-1465,45731,53.0539,0.0001456,15.06388171,546.23947632815,548.2561483855079,1 45731U 20038B   25304.73669773 -.00001950  00000+0 -11205-3 0  9993,2 45731  53.0539  95.5082 0001456  95.4054 264.7101 15.06388171296759
STARLINK-1471,45735,53.0514,0.0001017,15.40940794,442.63767710258344,444.0251637793017,1 45735U 20038F   25305.52665520  .00021315  00000+0  51837-3 0  9991,2 45735  53.0514  31.9959 0001017 137.6359 222.4724 15.40940794297726
STARLINK-1474,45738,53.039,0.0003869,15.66946064,365.0377569459188,370.25764514758885,1 45738U 20038J   25305.41958223  .00072693  00000+0  67105-3 0  9997,2 45738  53.0390 349.6555 0003869 342.8433  17.2451 15.66946064298308
